[{"OBJECT_NAME":"STARLINK-3711","OBJECT_ID":"2022-029AV","EPOCH":"2026-03-09T23:28:15.759552","MEAN_MOTION":15.14150134,"ECCENTRICITY":6.042e-5,"INCLINATION":53.2142,"RA_OF_ASC_NODE":66.1332,"ARG_OF_PERICENTER":49.6209,"MEAN_ANOMALY":310.4839,"EPHEMERIS_TYPE":0,"CLASSIFICATION_TYPE":"U","NORAD_CAT_ID":52131,"ELEMENT_SET_NO":999,"REV_AT_EPOCH":22100,"BSTAR":0.0018381126,"MEAN_MOTION_DOT":0.00033758,"MEAN_MOTION_DDOT":0},{"OBJECT_NAME":"POPSAT-HIP-1","OBJECT_ID":"2014-033U","EPOCH":"2026-03-09T23:26:47.463936","MEAN_MOTION":15.1379217,"ECCENTRICITY":0.00074107,"INCLINATION":98.1028,"RA_OF_ASC_NODE":73.4567,"ARG_OF_PERICENTER":158.1927,"MEAN_ANOMALY":201.962,"EPHEMERIS_TYPE":0,"CLASSIFICATION_TYPE":"U","NORAD_CAT_ID":40028,"ELEMENT_SET_NO":999,"REV_AT_EPOCH":63778,"BSTAR":0.00046333918,"MEAN_MOTION_DOT":8.298e-5,"MEAN_MOTION_DDOT":0}]
